USA 433 StarSh
1 61656U 24192N   26175.97095917 0.00000000  00000-0  00000-0 0    03
2 61656  70.0093 232.5159 0003000 245.6336 114.3664 14.96712970    05
USA 434 StarSh
1 61657U 24192P   26179.93408300 0.00000000  00000-0  00000-0 0    08
2 61657  70.0190 222.5380 0002000 226.4823 133.5177 14.96713136    03
USA 435 StarSh
1 61658U 24192Q   26179.92741209 0.00000000  00000-0  00000-0 0    06
2 61658  70.0142 222.7193 0003000  53.8339 306.1660 14.96713101    07
USA 436 StarSh
1 61659U 24192R   26183.90387536 0.00000000  00000-0  00000-0 0    09
2 61659  70.0124 212.4601 0004000 256.1791 103.8209 14.96713125    06
USA 437 StarSh
1 61660U 24192S   26183.89718513 0.00000000  00000-0  00000-0 0    02
2 61660  70.0220 212.5497 0003000  70.5481 289.4519 14.96713119    00
USA 441 StarSh
1 62340U 24243A   26183.02750981 0.00000000  00000-0  00000-0 0    05
2 62340  70.0150 259.5787 0003000 252.2030 107.7969 14.96713484    06
USA 442 StarSh
1 62341U 24243B   26183.02977208 0.00000000  00000-0  00000-0 0    09
2 62341  70.0100 259.7143 0003000 203.5810 156.4190 14.96713163    06
USA 443 StarSh
1 62342U 24243C   26184.02331009 0.00000000  00000-0  00000-0 0    04
2 62342  70.0117 257.0608 0002000 303.0954  56.9046 14.96713630    09
USA 444 StarSh
1 62343U 24243D   26128.86685318 0.00000000  00000-0  00000-0 0    00
2 62343  70.0231  35.8837 0003000 316.0100  43.9900 14.96713380    08
USA 445 StarSh
1 62344U 24243E   26187.95980324 0.00000000  00000-0  00000-0 0    01
2 62344  70.0165 247.5191 0003000 183.5276 176.4723 14.96713436    08
USA 446 StarSh
1 62345U 24243F   26175.05700449 0.00000000  00000-0  00000-0 0    08
2 62345  70.0230 264.8727 0003000  57.7477 302.2522 14.96713536    01
USA 447 StarSh
1 62346U 24243G   26178.03103243 0.00000000  00000-0  00000-0 0    09
2 62346  70.0160 257.4401 0004000 162.3089 197.6910 14.96713506    08
USA 448 StarSh
1 62347U 24243H   26060.18600581 0.00000000  00000-0  00000-0 0    03
2 62347  70.0020 193.3866 0002000 293.2709  66.7291 14.96713956    05
USA 449 StarSh
1 62348U 24243J   26119.95139855 0.00000000  00000-0  00000-0 0    05
2 62348  70.0096  58.1766 0005000 120.9823 239.0176 14.96713551    00
USA 450 StarSh
1 62349U 24243K   26181.04262113 0.00000000  00000-0  00000-0 0    09
2 62349  70.0102 264.6566 0003000 194.1804 165.8196 14.96713548    05
USA 451 StarSh
1 62350U 24243L   26182.98990673 0.00000000  00000-0  00000-0 0    04
2 62350  70.0080 244.6122 0003000 245.4222 114.5777 14.96713408    03
USA 452 StarSh
1 62351U 24243M   26128.82924122 0.00000000  00000-0  00000-0 0    04
2 62351  70.0200  20.9541 0003000 233.0053 126.9947 14.96713406    07
USA 453 StarSh
1 62352U 24243N   26103.08550056 0.00000000  00000-0  00000-0 0    07
2 62352  70.0140  85.5326 0004000 237.8087 122.1913 14.96713356    04
USA 454 StarSh
1 62353U 24243P   26129.85595143 0.00000000  00000-0  00000-0 0    07
2 62353  70.0150  33.3654 0004000  57.5028 302.4971 14.96713399    07
USA 455 StarSh
1 62354U 24243Q   26187.94887812 0.00000000  00000-0  00000-0 0    09
2 62354  70.0160 232.3218 0001000 107.5426 252.4574 14.96713386    00
USA 456 StarSh
1 62355U 24243R   26119.95365632 0.00000000  00000-0  00000-0 0    07
2 62355  70.0140  58.2396 0004000  99.1040 260.8960 14.96713564    02
USA 457 StarSh
1 62356U 24243S   26187.97976515 0.00000000  00000-0  00000-0 0    03
2 62356  70.0070 247.1660 0004000 284.9027  75.0973 14.96713434    03
USA 458 StarSh
1 62357U 24243T   26127.83346543 0.00000000  00000-0  00000-0 0    05
2 62357  70.0220  23.5010 0004000  75.6986 284.3013 14.96713408    06
USA 459 StarSh
1 62358U 24243U   26108.07532530 0.00000000  00000-0  00000-0 0    04
2 62358  70.0210  87.8414 0002000  47.5151 312.4849 14.96713514    05
USA 460 StarSh
1 62359U 24243V   26128.86907205 0.00000000  00000-0  00000-0 0    09
2 62359  70.0216  35.7823 0004000 324.1479  35.8521 14.96713359    07
USA 461 StarSh
1 62360U 24243W   26129.85817107 0.00000000  00000-0  00000-0 0    02
2 62360  70.0190  33.3215 0001000 244.2134 115.7865 14.96713500    03
USA 462 StarSh
1 62361U 24243X   26183.98574134 0.00000000  00000-0  00000-0 0    07
2 62361  70.0190 242.2958 0002000 173.2650 186.7349 14.96713600    00
USA 463 StarSh
1 62532U 25005A   26150.94399493 0.00000000  00000-0  00000-0 0    07
2 62532  70.0200  85.4202 0003000 336.6454  23.3546 14.96713300    01
USA 464 StarSh
1 62533U 25005B   26146.98081591 0.00000000  00000-0  00000-0 0    04
2 62533  70.0234  95.2483 0002000 290.2996  69.7004 14.96713468    02
USA 465 StarSh
1 62534U 25005C   26143.02210363 0.00000000  00000-0  00000-0 0    08
2 62534  70.0243 105.1218 0003000 199.6241 160.3758 14.96713413    00
USA 466 StarSh
1 62535U 25005D   26148.95900559 0.00000000  00000-0  00000-0 0    09
2 62535  70.0260  90.1358 0002000 197.4114 162.5885 14.96713650    00
USA 468 StarSh
1 62537U 25005F   26147.02953387 0.00000000  00000-0  00000-0 0    05
2 62537  70.0250 110.0713 0003000  62.7514 297.2486 14.96713424    09
USA 469 StarSh
1 62538U 25005G   26146.02928053 0.00000000  00000-0  00000-0 0    07
2 62538  70.0222 112.5767 0002000  52.8205 307.1794 14.96713188    01
USA 470 StarSh
1 62539U 25005H   26149.95489205 0.00000000  00000-0  00000-0 0    04
2 62539  70.0194  87.9930 0002000 265.0600  94.9399 14.96713787    01
USA 471 StarSh
1 62540U 25005J   26126.90191106 0.00000000  00000-0  00000-0 0    06
2 62540  70.0266 160.5489 0002000  25.1493 334.8506 14.96713163    09
USA 472 StarSh
1 62541U 25005K   26147.96990408 0.00000000  00000-0  00000-0 0    08
2 62541  70.0250  92.6855 0002500 188.7509 171.2490 14.96713708    04
USA 473 StarSh
1 62542U 25005L   26160.89276936 0.00000000  00000-0  00000-0 0    09
2 62542  70.0250  75.3909 0003000 247.5997 112.4003 14.96713739    05
USA 474 StarSh
1 62543U 25005M   26147.02506117 0.00000000  00000-0  00000-0 0    07
2 62543  70.0241 110.0311 0002000 207.0483 152.9517 14.96713729    08
USA 475 StarSh
1 62544U 25005N   26150.98824365 0.00000000  00000-0  00000-0 0    05
2 62544  70.0106 100.2029 0003000 331.5508  28.4491 14.96713346    01
USA 476 StarSh
1 62545U 25005P   26154.95140266 0.00000000  00000-0  00000-0 0    08
2 62545  70.0275  90.3626 0003000 200.5625 159.4375 14.96713564    04
USA 477 StarSh
1 62546U 25005Q   26149.01005792 0.00000000  00000-0  00000-0 0    04
2 62546  70.0170 105.3147 0003000 292.3431  67.6569 14.96713398    08
USA 478 StarSh
1 62547U 25005R   26148.01427505 0.00000000  00000-0  00000-0 0    04
2 62547  70.0227 107.8532 0003000 255.4135 104.5865 14.96713191    09
USA 479 StarSh
1 62548U 25005S   26160.88609074 0.00000000  00000-0  00000-0 0    07
2 62548  70.0087  75.3772 0004840 337.6055  22.3945 14.96713154    01
USA 480 StarSh
1 62549U 25005T   26151.93978682 0.00000000  00000-0  00000-0 0    08
2 62549  70.0205  82.8960 0002000  28.3157 331.6842 14.96713180    00
USA 481 StarSh
1 62550U 25005U   26150.98153961 0.00000000  00000-0  00000-0 0    09
2 62550  70.0240 100.1822 0003000 164.5838 195.4162 14.96713358    00
USA 482 StarSh
1 62551U 25005V   26155.89626329 0.00000000  00000-0  00000-0 0    08
2 62551  70.0190  73.0181 0004000 322.0929  37.9070 14.96713678    07
USA 483 StarSh
1 62552U 25005W   26151.93308265 0.00000000  00000-0  00000-0 0    06
2 62552  70.0255  82.8680 0003000 195.5160 164.4840 14.96713368    08
USA 484 StarSh
1 62553U 25005X   26152.92218605 0.00000000  00000-0  00000-0 0    05
2 62553  70.0204  80.2986 0002000 336.3566  23.6434 14.96713118    06
CSO 3
1 63156U 25044A   26183.07488977 0.00000000  00000-0  00000-0 0    09
2 63156  98.6256 122.6292 0004042  13.0016 346.9982 14.26736467    01
USA 498
1 63350U 25060A   26127.84170371 0.00000000  00000-0  00000-0 0    02
2 63350  63.4342  34.4338 0096992 178.2161 181.7839 13.40999449    06
USA 521
1 63596U 25077A   26078.14739726 0.00000000  00000-0  00000-0 0    05
2 63596  63.3971  83.6849 0018000 293.5214  66.4786 13.38600918    09
USA 522
1 63597U 25077B   25317.19739246 0.00000000  00000-0  00000-0 0    03
2 63597  63.3855  42.8714 0020000 291.6239  68.3761 13.39285860    08
USA 521 r
1 63598U 25077C   26183.93541092 0.00000000  00000-0  00000-0 0    08
2 63598  63.3953 174.1560 0032791 341.6507  18.3493 13.39147365    04
USA 549 StarSh
1 65075U 25165V   26179.94435147 0.00000000  00000-0  00000-0 0    07
2 65075  97.6044 270.7618 0001540 119.7888 240.2110 15.40353212    04
USA 550 StarSh
1 65076U 25165W   26179.94670857 0.00000000  00000-0  00000-0 0    07
2 65076  97.6043 271.0719 0000604  99.7213 260.2785 15.40342594    00
USA 554
1 65161U 25173B   25359.84271250 0.00000000  00000-0  00000-0 0    03
2 65161   2.8470  33.8717 0008930 181.1439 178.8561  0.98975314    00
OTV 8
1 65271U 25183A   26171.89659290 0.00000000  00000-0  00000-0 0    08
2 65271  49.5166 126.6434 0004000   9.7761 350.2237 15.58430005    07
Limasat
1 65272U 25183B   25251.81098455 0.00075783  00000-0  38663-3 0    08
2 65272  49.5221 185.8300 0006423  21.0132 338.9866 15.80547521    07
Ofeq 19
1 65432U 25193A   26113.04990462 0.00000000  00000-0  00000-0 0    00
2 65432 139.1454 248.1956 0067143 275.3630  83.9536 15.10508836    02
Ofeq 19 r
1 65433U 25193B   25274.38516124 0.00150000  00000-0  16563-2 0    03
2 65433 139.4052 161.5227 0233344 264.6485  96.0411 15.35438923    09
USA 558 StarSh
1 65704U 25213A   26148.92369233 0.00000000  00000-0  00000-0 0    06
2 65704  70.0222  75.4391 0001000 202.3446 157.6553 14.96713410    06
USA 559 StarSh
1 65705U 25213B   26147.93458080 0.00000000  00000-0  00000-0 0    06
2 65705  70.0262  77.9394 0003000 103.9313 256.0687 14.96713210    02
USA 560 StarSh
1 65706U 25213C   26151.89772641 0.00000000  00000-0  00000-0 0    09
2 65706  70.0380  67.9143 0004000 315.9010  44.0989 14.96713800    00
USA 561 StarSh
1 65707U 25213D   26150.90192777 0.00000000  00000-0  00000-0 0    07
2 65707  70.0340  70.4405 0003000 336.6904  23.3095 14.96713600    04
